{"fetched_at":"2026-07-13T07:48:36.857Z","source":"https://celestrak.org/NORAD/elements/gp.php?NAME=PLEIADES&FORMAT=JSON","constellation":"pleiades","records":[{"OBJECT_NAME":"PLEIADES 1A","OBJECT_ID":"2011-076F","EPOCH":"2026-07-12T20:43:15.617280","CLASSIFICATION_TYPE":"U","MEAN_MOTION":14.58545371,"ECCENTRICITY":0.0001734,"INCLINATION":98.1974,"RA_OF_ASC_NODE":268.6202,"ARG_OF_PERICENTER":80.5015,"MEAN_ANOMALY":43.7584,"EPHEMERIS_TYPE":0,"NORAD_CAT_ID":38012,"ELEMENT_SET_NO":999,"REV_AT_EPOCH":77573,"BSTAR":0.0000012781,"MEAN_MOTION_DOT":-4e-7,"MEAN_MOTION_DDOT":0},{"OBJECT_NAME":"PLEIADES 1B","OBJECT_ID":"2012-068A","EPOCH":"2026-07-12T19:19:17.780160","CLASSIFICATION_TYPE":"U","MEAN_MOTION":14.58533572,"ECCENTRICITY":0.0001614,"INCLINATION":98.1944,"RA_OF_ASC_NODE":268.5029,"ARG_OF_PERICENTER":78.7748,"MEAN_ANOMALY":281.3633,"EPHEMERIS_TYPE":0,"NORAD_CAT_ID":39019,"ELEMENT_SET_NO":999,"REV_AT_EPOCH":72458,"BSTAR":0.000039547,"MEAN_MOTION_DOT":0.00000138,"MEAN_MOTION_DDOT":0}]}
